[Satellite]
VERSION=1.1
NAME=FALCON 9 R/B
NICKNAME=FALCON 9 R/B
TLE1=1 54028U 22128C   22296.63685925  .00003864  00000+0  11221-2 0  9998
TLE2=2 54028  26.8727 183.8945 5935604 194.1671 136.6689  4.12014859   601
STATUS=0
